NORAD_CAT_ID,OBJECT_NAME,OBJECT_TYPE,EPOCH,MEAN_MOTION,ECCENTRICITY,INCLINATION,RA_OF_ASC_NODE,ARG_OF_PERICENTER,MEAN_ANOMALY,BSTAR,MEAN_MOTION_DOT,MEAN_MOTION_DDOT,TLE_LINE0,TLE_LINE1,TLE_LINE2,SEMIMAJOR_AXIS,PERIOD,APOGEE,PERIGEE,DECAYED
53700.0,STARLINK-4725,PAYLOAD,2023-11-26 13:24:10,15.08863584,0.0001512,53.2197,28.3093,80.6578,279.4585,0.00035332,5.343e-05,0.0,0 STARLINK-4725,1 53700U 22107A   23330.55845485  .00005343  00000-0  35332-3 0  9996,2 53700  53.2197  28.3093 0001512  80.6578 279.4585 15.08863584 68936,6917.808,95.436,540.719,538.627,0.0
53700.0,STARLINK-4725,PAYLOAD,2023-11-27 03:42:42,15.08809075,0.0002022,53.2184,25.6354,65.4476,294.6726,-0.00052223,-8.583e-05,0.0,0 STARLINK-4725,1 53700U 22107A   23331.15465330 -.00008583  00000-0 -52223-3 0  9999,2 53700  53.2184  25.6354 0002022  65.4476 294.6726 15.08809075 68275,6917.975,95.44,541.239,538.441,0.0
53700.0,STARLINK-4725,PAYLOAD,2023-11-27 10:04:15,15.08807179,0.0001916,53.2187,24.446,74.2585,285.8619,-0.00047663,-7.859e-05,0.0,0 STARLINK-4725,1 53700U 22107A   23331.41961807 -.00007859  00000-0 -47663-3 0  9995,2 53700  53.2187  24.4460 0001916  74.2585 285.8619 15.08807179 69067,6917.981,95.44,541.171,538.52,0.0
53700.0,STARLINK-4725,PAYLOAD,2023-11-28 09:55:01,15.08844559,0.0001827,53.2195,19.9844,89.1248,270.9954,0.00029084,4.344e-05,0.0,0 STARLINK-4725,1 53700U 22107A   23332.41320952  .00004344  00000-0  29084-3 0  9997,2 53700  53.2195  19.9844 0001827  89.1248 270.9954 15.08844559 68466,6917.866,95.437,540.995,538.468,0.0
53700.0,STARLINK-4725,PAYLOAD,2023-11-29 09:45:48,15.08847231,0.0001854,53.2201,15.5249,76.9438,283.1761,0.00061957,9.588e-05,0.0,0 STARLINK-4725,1 53700U 22107A   23333.40681177  .00009588  00000-0  61957-3 0  9996,2 53700  53.2201  15.5249 0001854  76.9438 283.1761 15.08847231 68619,6917.858,95.437,541.006,538.441,0.0
53700.0,STARLINK-4725,PAYLOAD,2023-11-30 03:15:02,15.08849224,0.0001999,53.2199,12.253,78.8969,281.2248,8.9842e-06,-1.45e-06,0.0,0 STARLINK-4725,1 53700U 22107A   23334.13544745 -.00000145  00000-0  89842-5 0  9992,2 53700  53.2199  12.2530 0001999  78.8969 281.2248 15.08849224 68727,6917.852,95.437,541.1,538.334,0.0
53700.0,STARLINK-4725,PAYLOAD,2023-12-01 03:05:49,15.08841651,0.0002081,53.2191,7.797,103.2471,256.8753,-6.3843e-05,-1.304e-05,0.0,0 STARLINK-4725,1 53700U 22107A   23335.12904680 -.00001304  00000-0 -63843-4 0  9991,2 53700  53.2191   7.7970 0002081 103.2471 256.8753 15.08841651 68871,6917.875,95.437,541.18,538.301,0.0
53700.0,STARLINK-4725,PAYLOAD,2023-12-01 12:38:08,15.08844386,0.0002054,53.2182,6.0027,107.1784,252.9433,-5.22e-05,-1.119e-05,0.0,0 STARLINK-4725,1 53700U 22107A   23335.52648337 -.00001119  00000-0 -52200-4 0  9998,2 53700  53.2182   6.0027 0002054 107.1784 252.9433 15.08844386 69686,6917.867,95.437,541.153,538.311,0.0
53700.0,STARLINK-4725,PAYLOAD,2023-12-02 09:18:07,15.08871496,0.000179,53.218,2.1372,96.543,263.5766,0.00045825,7.019e-05,0.0,0 STARLINK-4725,1 53700U 22107A   23336.38758666  .00007019  00000-0  45825-3 0  9997,2 53700  53.2180   2.1372 0001790  96.5430 263.5766 15.08871496 69060,6917.784,95.436,540.887,538.411,0.0
53700.0,STARLINK-4725,PAYLOAD,2023-12-02 14:04:16,15.08877404,0.0001886,53.2173,1.2486,81.8731,278.2475,0.00049639,7.629e-05,0.0,0 STARLINK-4725,1 53700U 22107A   23336.58630011  .00007629  00000-0  49639-3 0  9996,2 53700  53.2173   1.2486 0001886  81.8731 278.2475 15.08877404 69846,6917.766,95.435,540.936,538.326,0.0
53700.0,STARLINK-4725,PAYLOAD,2023-12-03 01:12:01,15.08800993,0.0001756,53.2173,359.1653,94.5853,265.534,-0.00057489,-9.416e-05,0.0,0 STARLINK-4725,1 53700U 22107A   23337.05002161 -.00009416  00000-0 -57489-3 0  9998,2 53700  53.2173 359.1653 0001756  94.5853 265.5340 15.08800993 69163,6918.0,95.44,541.079,538.65,0.0
53700.0,STARLINK-4725,PAYLOAD,2023-12-03 09:08:58,15.08802831,0.0001764,53.2176,357.6796,84.6856,275.4338,-0.00046892,-7.736e-05,0.0,0 STARLINK-4725,1 53700U 22107A   23337.38122813 -.00007736  00000-0 -46892-3 0  9990,2 53700  53.2176 357.6796 0001764  84.6856 275.4338 15.08802831 69967,6917.994,95.44,541.079,538.639,0.0
53700.0,STARLINK-4725,PAYLOAD,2023-12-03 13:55:07,15.08807177,0.0001738,53.2179,356.7874,84.6468,275.4723,-0.00035999,-6.008e-05,0.0,0 STARLINK-4725,1 53700U 22107A   23337.57994954 -.00006008  00000-0 -35999-3 0  9991,2 53700  53.2179 356.7874 0001738  84.6468 275.4723 15.08807177 69244,6917.981,95.44,541.048,538.643,0.0
53700.0,STARLINK-4725,PAYLOAD,2023-12-04 01:02:48,15.08835085,0.0002283,53.219,354.7105,57.0545,303.0666,9.8836e-05,1.285e-05,0.0,0 STARLINK-4725,1 53700U 22107A   23338.04362233  .00001285  00000-0  98836-4 0  9993,2 53700  53.2190 354.7105 0002283  57.0545 303.0666 15.08835085 69319,6917.895,95.438,541.34,538.181,0.0
53700.0,STARLINK-4725,PAYLOAD,2023-12-04 08:59:43,15.08851647,0.0001946,53.2184,353.221,75.0838,285.0369,0.00022589,3.31e-05,0.0,0 STARLINK-4725,1 53700U 22107A   23338.37481314  .00003310  00000-0  22589-3 0  9993,2 53700  53.2184 353.2210 0001946  75.0838 285.0369 15.08851647 69369,6917.845,95.437,541.056,538.364,0.0
53700.0,STARLINK-4725,PAYLOAD,2023-12-04 21:42:48,15.08849871,0.0002057,53.2181,350.8423,78.8401,281.2823,0.00021407,3.121e-05,0.0,0 STARLINK-4725,1 53700U 22107A   23338.90473325  .00003121  00000-0  21407-3 0  9993,2 53700  53.2181 350.8423 0002057  78.8401 281.2823 15.08849871 70198,6917.85,95.437,541.138,538.292,0.0
53700.0,STARLINK-4725,PAYLOAD,2023-12-04 23:18:12,15.08848973,0.0002009,53.2182,350.5446,80.6874,279.4345,0.0001984,2.872e-05,0.0,0 STARLINK-4725,1 53700U 22107A   23338.97097362  .00002872  00000-0  19840-3 0  9993,2 53700  53.2182 350.5446 0002009  80.6874 279.4345 15.08848973 69450,6917.853,95.437,541.108,538.328,0.0
53700.0,STARLINK-4725,PAYLOAD,2023-12-05 07:15:08,15.08844443,0.000194,53.218,349.0575,80.8325,279.2886,0.00061955,9.587e-05,0.0,0 STARLINK-4725,1 53700U 22107A   23339.30217924  .00009587  00000-0  61955-3 0  9993,2 53700  53.2180 349.0575 0001940  80.8325 279.2886 15.08844443 69502,6917.867,95.437,541.074,538.39,0.0
53700.0,STARLINK-4725,PAYLOAD,2023-12-05 19:58:13,15.08846903,0.0001869,53.2198,346.6832,79.2122,280.908,0.0003383,5.101e-05,0.0,0 STARLINK-4725,1 53700U 22107A   23339.83209711  .00005101  00000-0  33830-3 0  9995,2 53700  53.2198 346.6832 0001869  79.2122 280.9080 15.08846903 70338,6917.859,95.437,541.017,538.431,0.0
53700.0,STARLINK-4725,PAYLOAD,2023-12-06 03:55:08,15.08845723,0.0002026,53.2179,345.1929,79.079,281.043,-8.7657e-05,-1.683e-05,0.0,0 STARLINK-4725,1 53700U 22107A   23340.16329451 -.00001683  00000-0 -87657-4 0  9997,2 53700  53.2179 345.1929 0002026  79.0790 281.0430 15.08845723 69634,6917.863,95.437,541.129,538.326,0.0
53700.0,STARLINK-4725,PAYLOAD,2023-12-06 10:16:40,15.08849904,0.0002082,53.2181,344.0013,87.2557,272.8674,7.0249e-06,-1.76e-06,0.0,0 STARLINK-4725,1 53700U 22107A   23340.42825156 -.00000176  00000-0  70249-5 0  9994,2 53700  53.2181 344.0013 0002082  87.2557 272.8674 15.08849904 70425,6917.85,95.437,541.155,538.275,0.0
53700.0,STARLINK-4725,PAYLOAD,2023-12-07 05:21:18,15.08842333,0.0002398,53.2195,340.4289,116.3754,243.7485,-5.4587e-05,-1.157e-05,0.0,0 STARLINK-4725,1 53700U 22107A   23341.22313281 -.00001157  00000-0 -54587-4 0  9991,2 53700  53.2195 340.4289 0002398 116.3754 243.7485 15.08842333 69792,6917.873,95.437,541.397,538.079,0.0
53700.0,STARLINK-4725,PAYLOAD,2023-12-08 05:12:05,15.08836631,0.0002631,53.2186,335.9693,119.5771,240.5483,8.52e-05,1.068e-05,0.0,0 STARLINK-4725,1 53700U 22107A   23342.21673353  .00001068  00000-0  85200-4 0  9995,2 53700  53.2186 335.9693 0002631 119.5771 240.5483 15.08836631 70692,6917.891,95.438,541.576,537.936,0.0
53700.0,STARLINK-4725,PAYLOAD,2023-12-09 03:27:30,15.08835669,0.0001986,53.2189,331.8118,92.4967,267.6253,7.0906e-05,8.4e-06,0.0,0 STARLINK-4725,1 53700U 22107A   23343.14409886  .00000840  00000-0  70906-4 0  9990,2 53700  53.2189 331.8118 0001986  92.4967 267.6253 15.08835669 70088,6917.894,95.438,541.133,538.385,0.0
53700.0,STARLINK-4725,PAYLOAD,2023-12-09 05:02:53,15.08835721,0.0001981,53.2187,331.5138,92.6302,267.4917,6.9619e-05,8.2e-06,0.0,0 STARLINK-4725,1 53700U 22107A   23343.21033919  .00000820  00000-0  69619-4 0  9995,2 53700  53.2187 331.5138 0001981  92.6302 267.4917 15.08835721 70843,6917.893,95.438,541.129,538.388,0.0
53700.0,STARLINK-4725,PAYLOAD,2023-12-10 08:04:26,15.08837431,0.0001963,53.2182,326.4575,91.6086,268.5131,2.5897e-05,1.24e-06,0.0,0 STARLINK-4725,1 53700U 22107A   23344.33642224  .00000124  00000-0  25897-4 0  9991,2 53700  53.2182 326.4575 0001963  91.6086 268.5131 15.08837431 70260,6917.888,95.438,541.111,538.395,0.0
53700.0,STARLINK-4725,PAYLOAD,2023-12-11 06:19:50,15.08839723,0.0001983,53.2184,322.2959,87.2101,272.9118,8.0104e-05,9.87e-06,0.0,0 STARLINK-4725,1 53700U 22107A   23345.26378112  .00000987  00000-0  80104-4 0  9995,2 53700  53.2184 322.2959 0001983  87.2101 272.9118 15.08839723 71152,6917.881,95.438,541.118,538.374,0.0
53700.0,STARLINK-4725,PAYLOAD,2023-12-12 02:59:51,15.08841503,0.0002075,53.2189,318.4311,83.3682,276.7546,7.107e-05,8.43e-06,0.0,0 STARLINK-4725,1 53700U 22107A   23346.12490079  .00000843  00000-0  71070-4 0  9991,2 53700  53.2189 318.4311 0002075  83.3682 276.7546 15.08841503 70537,6917.876,95.437,541.176,538.305,0.0
53700.0,STARLINK-4725,PAYLOAD,2023-12-12 04:35:14,15.08843692,0.0002176,53.2194,318.1358,79.2424,280.8813,8.86e-05,1.122e-05,0.0,0 STARLINK-4725,1 53700U 22107A   23346.19114023  .00001122  00000-0  88600-4 0  9998,2 53700  53.2194 318.1358 0002176  79.2424 280.8813 15.08843692 71299,6917.869,95.437,541.239,538.229,0.0
53700.0,STARLINK-4725,PAYLOAD,2023-12-13 04:26:01,15.08845491,0.0002009,53.2186,313.6825,86.3879,273.7343,5.7517e-05,6.27e-06,0.0,0 STARLINK-4725,1 53700U 22107A   23347.18473773  .00000627  00000-0  57517-4 0  9990,2 53700  53.2186 313.6825 0002009  86.3879 273.7343 15.08845491 70698,6917.864,95.437,541.118,538.339,0.0
